{
  "norad_id": 57441,
  "name": "STARLINK-30160",
  "history": [
    {
      "epoch": "2026-03-28T21:32:59.037792Z",
      "apogee_km": 533.1052197169056,
      "perigee_km": 531.3422484864222,
      "latitude_deg": -1.720777826393864e-05,
      "longitude_deg": 6.562738848308371,
      "height_km": 531.3345004672256,
      "semi_major_axis_km": 6910.360734101664,
      "eccentricity": 0.00012756,
      "inclination_deg": 43.0009,
      "raan_deg": 156.1205,
      "arg_perigee_deg": 40.972,
      "mean_anomaly_deg": 319.1221,
      "mean_motion_rev_day": 15.11303484
    },
    {
      "epoch": "2026-03-29T04:00:01.999584Z",
      "apogee_km": 535.9617265522847,
      "perigee_km": 535.0657174187154,
      "latitude_deg": 16.07469364233062,
      "longitude_deg": -74.04361151218882,
      "height_km": 534.7491768087933,
      "semi_major_axis_km": 6913.650721985499,
      "eccentricity": 6.48e-05,
      "inclination_deg": 43.0002,
      "raan_deg": 154.6441,
      "arg_perigee_deg": 276.9949,
      "mean_anomaly_deg": 106.8908,
      "mean_motion_rev_day": 15.1022484
    },
    {
      "epoch": "2026-03-30T04:00:01.999584Z",
      "apogee_km": 538.6150046384273,
      "perigee_km": 532.3650857895545,
      "latitude_deg": 38.95282940438774,
      "longitude_deg": -38.865421829326316,
      "height_km": 540.1750009165806,
      "semi_major_axis_km": 6913.627045213991,
      "eccentricity": 0.000452,
      "inclination_deg": 43.0001,
      "raan_deg": 149.1444,
      "arg_perigee_deg": 285.8022,
      "mean_anomaly_deg": 140.9338,
      "mean_motion_rev_day": 15.10232598
    },
    {
      "epoch": "2026-03-30T06:00:02.000160Z",
      "apogee_km": 537.151482169802,
      "perigee_km": 533.3455251823179,
      "latitude_deg": 13.32868890196879,
      "longitude_deg": 36.39885113319121,
      "height_km": 536.123282736314,
      "semi_major_axis_km": 6913.38550367606,
      "eccentricity": 0.00027526,
      "inclination_deg": 43.0,
      "raan_deg": 148.6872,
      "arg_perigee_deg": 353.7602,
      "mean_anomaly_deg": 166.5106,
      "mean_motion_rev_day": 15.10311746
    },
    {
      "epoch": "2026-03-30T14:00:03.000384Z",
      "apogee_km": 535.4318017764972,
      "perigee_km": 534.7353639349803,
      "latitude_deg": 3.5302796448256606,
      "longitude_deg": -74.90295684138069,
      "height_km": 534.6971404524536,
      "semi_major_axis_km": 6913.220582855738,
      "eccentricity": 5.037e-05,
      "inclination_deg": 43.0003,
      "raan_deg": 146.855,
      "arg_perigee_deg": 305.1261,
      "mean_anomaly_deg": 229.6446,
      "mean_motion_rev_day": 15.10365791
    },
    {
      "epoch": "2026-03-30T22:00:00.999936Z",
      "apogee_km": 535.825366917421,
      "perigee_km": 533.6381352445787,
      "latitude_deg": -6.349141936878046,
      "longitude_deg": 173.52788563637415,
      "height_km": 535.4645504205093,
      "semi_major_axis_km": 6912.868751081,
      "eccentricity": 0.0001582,
      "inclination_deg": 43.0032,
      "raan_deg": 145.0192,
      "arg_perigee_deg": 274.6057,
      "mean_anomaly_deg": 274.6052,
      "mean_motion_rev_day": 15.10481098
    }
  ]
}